ICEYE-X40               
1 60549U 24149CK  26201.76769658  .00001671  00000+0  14609-3 0  9996
2 60549  97.6802 277.7251 0003921 350.4176   9.6971 14.98099316105109
ICEYE-X49               
1 62384U 24247H   26201.37101126  .00001687  00000+0  10685-3 0  9998
2 62384  44.9979 180.1383 0000279 152.4327 207.6566 15.13475102 87201
ICEYE-X47               
1 62389U 24247N   26201.94071694  .00001441  00000+0  93278-4 0  9990
2 62389  44.9961 176.6849 0000813  28.0523 332.0398 15.13501307 87296
ICEYE-X42               
1 62698U 25009CT  26201.94446345  .00001101  00000+0  11454-3 0  9997
2 62698  97.7388 279.6503 0001311  99.6468 260.4899 14.91833079 82323
ICEYE-X41               
1 62700U 25009CV  26201.89546532  .00002285  00000+0  20397-3 0  9994
2 62700  97.7058 280.9332 0000555 178.3829 181.7395 14.96934835 82458
ICEYE-X45               
1 62705U 25009DA  26201.79826025  .00002612  00000+0  21028-3 0  9992
2 62705  97.8419 288.7661 0000987  78.0946 282.0388 15.00847634 82724
ICEYE-X44               
1 62707U 25009DC  26201.92746105  .00001270  00000+0  11780-3 0  9992
2 62707  97.7053 280.5217 0002082  60.5374 299.6055 14.96185364104982
ICEYE-X48               
1 63253U 25052AV  26201.45351239  .00002080  00000+0  18037-3 0  9997
2 63253  97.6841  93.1292 0004333  91.6540 268.5179 14.98147333 73652
ICEYE-X50               
1 63255U 25052AX  26201.95058190  .00000534  00000+0  53533-4 0  9997
2 63255  97.6847  93.1919 0003398  91.5770 268.5840 14.95373153 73697
ICEYE-X51               
1 63257U 25052AZ  26201.85902743  .00002840  00000+0  22791-3 0  9993
2 63257  97.7619  96.8971 0002072  63.4603 296.6833 15.00886690 73850
ICEYE-X46               
1 63258U 25052BA  26201.94729601  .00000632  00000+0  62386-4 0  9996
2 63258  97.6850  93.1880 0001534  81.0194 279.1200 14.95376719 73694
ICEYE-X54               
1 64570U 25135AU  26201.89933866  .00001354  00000+0  12988-3 0  9994
2 64570  97.7749 316.0023 0002490 167.0253 193.1032 14.94749457 58939
ICEYE-X52               
1 64572U 25135AW  26201.90132749  .00000818  00000+0  82776-4 0  9996
2 64572  97.7772 315.7857 0001717 171.3381 188.7869 14.93663996 58917
ICEYE-X56               
1 64574U 25135AY  26201.94972962  .00001958  00000+0  18071-3 0  9993
2 64574  97.7773 316.6510 0001733 171.0188 189.1064 14.95786111 58971
ICEYE-X57               
1 64578U 25135BC  26201.93492042  .00003115  00000+0  24966-3 0  9999
2 64578  97.8035 318.5122 0002165  56.3902 303.7528 15.00868229 59086
ICEYE-X55               
1 64581U 25135BF  26201.89181440  .00001410  00000+0  13293-3 0  9992
2 64581  97.7770 316.4156 0002254 210.8570 149.2519 14.95382334 58955
