{"fetched_at":"2026-07-21T07:06:56.588Z","source":"https://celestrak.org/NORAD/elements/gp.php?NAME=ICEYE&FORMAT=JSON","constellation":"iceye","records":[{"OBJECT_NAME":"ICEYE-X40","OBJECT_ID":"2024-149CK","EPOCH":"2026-07-20T18:25:28.984512","CLASSIFICATION_TYPE":"U","MEAN_MOTION":14.98099316,"ECCENTRICITY":0.00039211,"INCLINATION":97.6802,"RA_OF_ASC_NODE":277.7251,"ARG_OF_PERICENTER":350.4176,"MEAN_ANOMALY":9.6971,"EPHEMERIS_TYPE":0,"NORAD_CAT_ID":60549,"ELEMENT_SET_NO":999,"REV_AT_EPOCH":10510,"BSTAR":0.00014608818,"MEAN_MOTION_DOT":0.00001671,"MEAN_MOTION_DDOT":0},{"OBJECT_NAME":"ICEYE-X49","OBJECT_ID":"2024-247H","EPOCH":"2026-07-20T08:54:15.372864","CLASSIFICATION_TYPE":"U","MEAN_MOTION":15.13475102,"ECCENTRICITY":0.00002792,"INCLINATION":44.9979,"RA_OF_ASC_NODE":180.1383,"ARG_OF_PERICENTER":152.4327,"MEAN_ANOMALY":207.6566,"EPHEMERIS_TYPE":0,"NORAD_CAT_ID":62384,"ELEMENT_SET_NO":999,"REV_AT_EPOCH":8720,"BSTAR":0.00010685111,"MEAN_MOTION_DOT":0.00001687,"MEAN_MOTION_DDOT":0},{"OBJECT_NAME":"ICEYE-X47","OBJECT_ID":"2024-247N","EPOCH":"2026-07-20T22:34:37.943616","CLASSIFICATION_TYPE":"U","MEAN_MOTION":15.13501307,"ECCENTRICITY":0.00008132,"INCLINATION":44.9961,"RA_OF_ASC_NODE":176.6849,"ARG_OF_PERICENTER":28.0523,"MEAN_ANOMALY":332.0398,"EPHEMERIS_TYPE":0,"NORAD_CAT_ID":62389,"ELEMENT_SET_NO":999,"REV_AT_EPOCH":8729,"BSTAR":0.000093277992,"MEAN_MOTION_DOT":0.00001441,"MEAN_MOTION_DDOT":0},{"OBJECT_NAME":"ICEYE-X42","OBJECT_ID":"2025-009CT","EPOCH":"2026-07-20T22:40:01.642080","CLASSIFICATION_TYPE":"U","MEAN_MOTION":14.91833079,"ECCENTRICITY":0.00013114,"INCLINATION":97.7388,"RA_OF_ASC_NODE":279.6503,"ARG_OF_PERICENTER":99.6468,"MEAN_ANOMALY":260.4899,"EPHEMERIS_TYPE":0,"NORAD_CAT_ID":62698,"ELEMENT_SET_NO":999,"REV_AT_EPOCH":8232,"BSTAR":0.00011453928,"MEAN_MOTION_DOT":0.00001101,"MEAN_MOTION_DDOT":0},{"OBJECT_NAME":"ICEYE-X41","OBJECT_ID":"2025-009CV","EPOCH":"2026-07-20T21:29:28.203648","CLASSIFICATION_TYPE":"U","MEAN_MOTION":14.96934835,"ECCENTRICITY":0.00005556,"INCLINATION":97.7058,"RA_OF_ASC_NODE":280.9332,"ARG_OF_PERICENTER":178.3829,"MEAN_ANOMALY":181.7395,"EPHEMERIS_TYPE":0,"NORAD_CAT_ID":62700,"ELEMENT_SET_NO":999,"REV_AT_EPOCH":8245,"BSTAR":0.0002039744,"MEAN_MOTION_DOT":0.00002285,"MEAN_MOTION_DDOT":0},{"OBJECT_NAME":"ICEYE-X45","OBJECT_ID":"2025-009DA","EPOCH":"2026-07-20T19:09:29.685600","CLASSIFICATION_TYPE":"U","MEAN_MOTION":15.00847634,"ECCENTRICITY":0.00009874,"INCLINATION":97.8419,"RA_OF_ASC_NODE":288.7661,"ARG_OF_PERICENTER":78.0946,"MEAN_ANOMALY":282.0388,"EPHEMERIS_TYPE":0,"NORAD_CAT_ID":62705,"ELEMENT_SET_NO":999,"REV_AT_EPOCH":8272,"BSTAR":0.00021027869,"MEAN_MOTION_DOT":0.00002612,"MEAN_MOTION_DDOT":0},{"OBJECT_NAME":"ICEYE-X44","OBJECT_ID":"2025-009DC","EPOCH":"2026-07-20T22:15:32.634720","CLASSIFICATION_TYPE":"U","MEAN_MOTION":14.96185364,"ECCENTRICITY":0.00020829,"INCLINATION":97.7053,"RA_OF_ASC_NODE":280.5217,"ARG_OF_PERICENTER":60.5374,"MEAN_ANOMALY":299.6055,"EPHEMERIS_TYPE":0,"NORAD_CAT_ID":62707,"ELEMENT_SET_NO":999,"REV_AT_EPOCH":10498,"BSTAR":0.00011780209,"MEAN_MOTION_DOT":0.0000127,"MEAN_MOTION_DDOT":0},{"OBJECT_NAME":"ICEYE-X48","OBJECT_ID":"2025-052AV","EPOCH":"2026-07-20T10:53:03.470496","CLASSIFICATION_TYPE":"U","MEAN_MOTION":14.98147333,"ECCENTRICITY":0.00043334,"INCLINATION":97.6841,"RA_OF_ASC_NODE":93.1292,"ARG_OF_PERICENTER":91.654,"MEAN_ANOMALY":268.5179,"EPHEMERIS_TYPE":0,"NORAD_CAT_ID":63253,"ELEMENT_SET_NO":999,"REV_AT_EPOCH":7365,"BSTAR":0.00018036814,"MEAN_MOTION_DOT":0.0000208,"MEAN_MOTION_DDOT":0},{"OBJECT_NAME":"ICEYE-X50","OBJECT_ID":"2025-052AX","EPOCH":"2026-07-20T22:48:50.276160","CLASSIFICATION_TYPE":"U","MEAN_MOTION":14.95373153,"ECCENTRICITY":0.00033987,"INCLINATION":97.6847,"RA_OF_ASC_NODE":93.1919,"ARG_OF_PERICENTER":91.577,"MEAN_ANOMALY":268.584,"EPHEMERIS_TYPE":0,"NORAD_CAT_ID":63255,"ELEMENT_SET_NO":999,"REV_AT_EPOCH":7369,"BSTAR":0.000053532582,"MEAN_MOTION_DOT":0.00000534,"MEAN_MOTION_DDOT":0},{"OBJECT_NAME":"ICEYE-X51","OBJECT_ID":"2025-052AZ","EPOCH":"2026-07-20T20:36:59.969952","CLASSIFICATION_TYPE":"U","MEAN_MOTION":15.0088669,"ECCENTRICITY":0.00020724,"INCLINATION":97.7619,"RA_OF_ASC_NODE":96.8971,"ARG_OF_PERICENTER":63.4603,"MEAN_ANOMALY":296.6833,"EPHEMERIS_TYPE":0,"NORAD_CAT_ID":63257,"ELEMENT_SET_NO":999,"REV_AT_EPOCH":7385,"BSTAR":0.00022790656,"MEAN_MOTION_DOT":0.0000284,"MEAN_MOTION_DDOT":0},{"OBJECT_NAME":"ICEYE-X46","OBJECT_ID":"2025-052BA","EPOCH":"2026-07-20T22:44:06.375264","CLASSIFICATION_TYPE":"U","MEAN_MOTION":14.95376719,"ECCENTRICITY":0.00015342,"INCLINATION":97.685,"RA_OF_ASC_NODE":93.188,"ARG_OF_PERICENTER":81.0194,"MEAN_ANOMALY":279.12,"EPHEMERIS_TYPE":0,"NORAD_CAT_ID":63258,"ELEMENT_SET_NO":999,"REV_AT_EPOCH":7369,"BSTAR":0.000062385659,"MEAN_MOTION_DOT":0.00000632,"MEAN_MOTION_DDOT":0},{"OBJECT_NAME":"ICEYE-X54","OBJECT_ID":"2025-135AU","EPOCH":"2026-07-20T21:35:02.860224","CLASSIFICATION_TYPE":"U","MEAN_MOTION":14.94749457,"ECCENTRICITY":0.00024907,"INCLINATION":97.7749,"RA_OF_ASC_NODE":316.0023,"ARG_OF_PERICENTER":167.0253,"MEAN_ANOMALY":193.1032,"EPHEMERIS_TYPE":0,"NORAD_CAT_ID":64570,"ELEMENT_SET_NO":999,"REV_AT_EPOCH":5893,"BSTAR":0.00012988188,"MEAN_MOTION_DOT":0.00001354,"MEAN_MOTION_DDOT":0},{"OBJECT_NAME":"ICEYE-X52","OBJECT_ID":"2025-135AW","EPOCH":"2026-07-20T21:37:54.695136","CLASSIFICATION_TYPE":"U","MEAN_MOTION":14.93663996,"ECCENTRICITY":0.00017171,"INCLINATION":97.7772,"RA_OF_ASC_NODE":315.7857,"ARG_OF_PERICENTER":171.3381,"MEAN_ANOMALY":188.7869,"EPHEMERIS_TYPE":0,"NORAD_CAT_ID":64572,"ELEMENT_SET_NO":999,"REV_AT_EPOCH":5891,"BSTAR":0.00008277566,"MEAN_MOTION_DOT":0.00000818,"MEAN_MOTION_DDOT":0},{"OBJECT_NAME":"ICEYE-X56","OBJECT_ID":"2025-135AY","EPOCH":"2026-07-20T22:47:36.639168","CLASSIFICATION_TYPE":"U","MEAN_MOTION":14.95786111,"ECCENTRICITY":0.00017333,"INCLINATION":97.7773,"RA_OF_ASC_NODE":316.651,"ARG_OF_PERICENTER":171.0188,"MEAN_ANOMALY":189.1064,"EPHEMERIS_TYPE":0,"NORAD_CAT_ID":64574,"ELEMENT_SET_NO":999,"REV_AT_EPOCH":5897,"BSTAR":0.00018070579,"MEAN_MOTION_DOT":0.00001958,"MEAN_MOTION_DDOT":0},{"OBJECT_NAME":"ICEYE-X57","OBJECT_ID":"2025-135BC","EPOCH":"2026-07-20T22:26:17.124288","CLASSIFICATION_TYPE":"U","MEAN_MOTION":15.00868229,"ECCENTRICITY":0.00021659,"INCLINATION":97.8035,"RA_OF_ASC_NODE":318.5122,"ARG_OF_PERICENTER":56.3902,"MEAN_ANOMALY":303.7528,"EPHEMERIS_TYPE":0,"NORAD_CAT_ID":64578,"ELEMENT_SET_NO":999,"REV_AT_EPOCH":5908,"BSTAR":0.00024966413,"MEAN_MOTION_DOT":0.00003115,"MEAN_MOTION_DDOT":0},{"OBJECT_NAME":"ICEYE-X55","OBJECT_ID":"2025-135BF","EPOCH":"2026-07-20T21:24:12.764160","CLASSIFICATION_TYPE":"U","MEAN_MOTION":14.95382334,"ECCENTRICITY":0.0002254,"INCLINATION":97.777,"RA_OF_ASC_NODE":316.4156,"ARG_OF_PERICENTER":210.857,"MEAN_ANOMALY":149.2519,"EPHEMERIS_TYPE":0,"NORAD_CAT_ID":64581,"ELEMENT_SET_NO":999,"REV_AT_EPOCH":5895,"BSTAR":0.00013293409,"MEAN_MOTION_DOT":0.0000141,"MEAN_MOTION_DDOT":0}]}
